CCSDS_OMM_VERS = 2.0
CREATION_DATE  = 
ORIGINATOR     = 

OBJECT_NAME    = INTERCOSMOS 25
OBJECT_ID      = 1991-086A
CENTER_NAME    = EARTH
REF_FRAME      = TEME
TIME_SYSTEM    = UTC
MEAN_ELEMENT_THEORY = SGP/SGP4

EPOCH          = 2026-02-20T17:35:38.290848
MEAN_MOTION    = 12.11948054
ECCENTRICITY   = .1487015
INCLINATION    = 82.6079
RA_OF_ASC_NODE = 320.2551
ARG_OF_PERICENTER = 153.4588
MEAN_ANOMALY   = 215.1166

EPHEMERIS_TYPE = 0
CLASSIFICATION_TYPE = U
NORAD_CAT_ID   = 21819
ELEMENT_SET_NO = 999
REV_AT_EPOCH   = 49463
BSTAR          = .14708E-3
MEAN_MOTION_DOT = .779E-5
MEAN_MOTION_DDOT = 0

CCSDS_OMM_VERS = 2.0
CREATION_DATE  = 
ORIGINATOR     = 

OBJECT_NAME    = SL-8 R/B
OBJECT_ID      = 1992-008B
CENTER_NAME    = EARTH
REF_FRAME      = TEME
TIME_SYSTEM    = UTC
MEAN_ELEMENT_THEORY = SGP/SGP4

EPOCH          = 2026-02-20T16:56:44.196576
MEAN_MOTION    = 13.75970057
ECCENTRICITY   = .0034603
INCLINATION    = 82.9243
RA_OF_ASC_NODE = 280.4144
ARG_OF_PERICENTER = 180.0076
MEAN_ANOMALY   = 241.3214

EPHEMERIS_TYPE = 0
CLASSIFICATION_TYPE = U
NORAD_CAT_ID   = 21876
ELEMENT_SET_NO = 999
REV_AT_EPOCH   = 70708
BSTAR          = .66266E-5
MEAN_MOTION_DOT = .22E-6
MEAN_MOTION_DDOT = 0

CCSDS_OMM_VERS = 2.0
CREATION_DATE  = 
ORIGINATOR     = 

OBJECT_NAME    = SL-8 R/B
OBJECT_ID      = 1992-020B
CENTER_NAME    = EARTH
REF_FRAME      = TEME
TIME_SYSTEM    = UTC
MEAN_ELEMENT_THEORY = SGP/SGP4

EPOCH          = 2026-02-20T18:05:23.230176
MEAN_MOTION    = 13.75547186
ECCENTRICITY   = .0028472
INCLINATION    = 82.9341
RA_OF_ASC_NODE = 166.3317
ARG_OF_PERICENTER = 347.6345
MEAN_ANOMALY   = 121.8570

EPHEMERIS_TYPE = 0
CLASSIFICATION_TYPE = U
NORAD_CAT_ID   = 21938
ELEMENT_SET_NO = 999
REV_AT_EPOCH   = 69880
BSTAR          = .81824E-4
MEAN_MOTION_DOT = .94E-6
MEAN_MOTION_DDOT = 0

CCSDS_OMM_VERS = 2.0
CREATION_DATE  = 
ORIGINATOR     = 

OBJECT_NAME    = USA 81
OBJECT_ID      = 1992-023A
CENTER_NAME    = EARTH
REF_FRAME      = TEME
TIME_SYSTEM    = UTC
MEAN_ELEMENT_THEORY = SGP/SGP4

EPOCH          = 2026-02-20T16:24:00.624384
MEAN_MOTION    = 14.32361591
ECCENTRICITY   = .000274
INCLINATION    = 85.0114
RA_OF_ASC_NODE = 141.2488
ARG_OF_PERICENTER = 93.4806
MEAN_ANOMALY   = 266.6700

EPHEMERIS_TYPE = 0
CLASSIFICATION_TYPE = U
NORAD_CAT_ID   = 21949
ELEMENT_SET_NO = 999
REV_AT_EPOCH   = 9235
BSTAR          = .61475E-4
MEAN_MOTION_DOT = .186E-5
MEAN_MOTION_DDOT = 0

CCSDS_OMM_VERS = 2.0
CREATION_DATE  = 
ORIGINATOR     = 

OBJECT_NAME    = COSMOS 2219
OBJECT_ID      = 1992-076A
CENTER_NAME    = EARTH
REF_FRAME      = TEME
TIME_SYSTEM    = UTC
MEAN_ELEMENT_THEORY = SGP/SGP4

EPOCH          = 2026-02-20T13:03:05.175360
MEAN_MOTION    = 14.14080512
ECCENTRICITY   = .0019803
INCLINATION    = 71.0588
RA_OF_ASC_NODE = 53.9112
ARG_OF_PERICENTER = 230.0498
MEAN_ANOMALY   = 129.8886

EPHEMERIS_TYPE = 0
CLASSIFICATION_TYPE = U
NORAD_CAT_ID   = 22219
ELEMENT_SET_NO = 999
REV_AT_EPOCH   = 71595
BSTAR          = .17451E-3
MEAN_MOTION_DOT = .286E-5
MEAN_MOTION_DDOT = 0

CCSDS_OMM_VERS = 2.0
CREATION_DATE  = 
ORIGINATOR     = 

OBJECT_NAME    = SL-16 R/B
OBJECT_ID      = 1992-076B
CENTER_NAME    = EARTH
REF_FRAME      = TEME
TIME_SYSTEM    = UTC
MEAN_ELEMENT_THEORY = SGP/SGP4

EPOCH          = 2026-02-20T18:12:18.737280
MEAN_MOTION    = 14.16854735
ECCENTRICITY   = .0011096
INCLINATION    = 70.9978
RA_OF_ASC_NODE = 224.0376
ARG_OF_PERICENTER = 127.5199
MEAN_ANOMALY   = 323.8282

EPHEMERIS_TYPE = 0
CLASSIFICATION_TYPE = U
NORAD_CAT_ID   = 22220
ELEMENT_SET_NO = 999
REV_AT_EPOCH   = 71943
BSTAR          = .31686E-4
MEAN_MOTION_DOT = .16E-6
MEAN_MOTION_DDOT = 0

CCSDS_OMM_VERS = 2.0
CREATION_DATE  = 
ORIGINATOR     = 

OBJECT_NAME    = COSMOS 2221
OBJECT_ID      = 1992-080A
CENTER_NAME    = EARTH
REF_FRAME      = TEME
TIME_SYSTEM    = UTC
MEAN_ELEMENT_THEORY = SGP/SGP4

EPOCH          = 2026-02-20T17:12:17.713152
MEAN_MOTION    = 14.96130375
ECCENTRICITY   = .0012888
INCLINATION    = 82.5037
RA_OF_ASC_NODE = 295.3387
ARG_OF_PERICENTER = 248.4889
MEAN_ANOMALY   = 111.4960

EPHEMERIS_TYPE = 0
CLASSIFICATION_TYPE = U
NORAD_CAT_ID   = 22236
ELEMENT_SET_NO = 999
REV_AT_EPOCH   = 77825
BSTAR          = .13437E-3
MEAN_MOTION_DOT = .1539E-4
MEAN_MOTION_DDOT = 0

CCSDS_OMM_VERS = 2.0
CREATION_DATE  = 
ORIGINATOR     = 

OBJECT_NAME    = SL-16 R/B
OBJECT_ID      = 1992-093B
CENTER_NAME    = EARTH
REF_FRAME      = TEME
TIME_SYSTEM    = UTC
MEAN_ELEMENT_THEORY = SGP/SGP4

EPOCH          = 2026-02-20T10:12:28.281312
MEAN_MOTION    = 14.15446345
ECCENTRICITY   = .0005663
INCLINATION    = 71.0216
RA_OF_ASC_NODE = 40.5077
ARG_OF_PERICENTER = 312.2456
MEAN_ANOMALY   = 47.8186

EPHEMERIS_TYPE = 0
CLASSIFICATION_TYPE = U
NORAD_CAT_ID   = 22285
ELEMENT_SET_NO = 999
REV_AT_EPOCH   = 71071
BSTAR          = .17365E-3
MEAN_MOTION_DOT = .292E-5
MEAN_MOTION_DDOT = 0

CCSDS_OMM_VERS = 2.0
CREATION_DATE  = 
ORIGINATOR     = 

OBJECT_NAME    = COSMOS 2228
OBJECT_ID      = 1992-094A
CENTER_NAME    = EARTH
REF_FRAME      = TEME
TIME_SYSTEM    = UTC
MEAN_ELEMENT_THEORY = SGP/SGP4

EPOCH          = 2026-02-20T17:51:53.682912
MEAN_MOTION    = 14.97102121
ECCENTRICITY   = .0018102
INCLINATION    = 82.5145
RA_OF_ASC_NODE = 253.5381
ARG_OF_PERICENTER = 3.6282
MEAN_ANOMALY   = 356.5068

EPHEMERIS_TYPE = 0
CLASSIFICATION_TYPE = U
NORAD_CAT_ID   = 22286
ELEMENT_SET_NO = 999
REV_AT_EPOCH   = 77352
BSTAR          = .13994E-3
MEAN_MOTION_DOT = .1645E-4
MEAN_MOTION_DDOT = 0

CCSDS_OMM_VERS = 2.0
CREATION_DATE  = 
ORIGINATOR     = 

OBJECT_NAME    = SL-16 R/B
OBJECT_ID      = 1993-016B
CENTER_NAME    = EARTH
REF_FRAME      = TEME
TIME_SYSTEM    = UTC
MEAN_ELEMENT_THEORY = SGP/SGP4

EPOCH          = 2026-02-20T17:55:15.358656
MEAN_MOTION    = 14.15299959
ECCENTRICITY   = .0010706
INCLINATION    = 71.0042
RA_OF_ASC_NODE = 250.7679
ARG_OF_PERICENTER = 337.2735
MEAN_ANOMALY   = 22.7913

EPHEMERIS_TYPE = 0
CLASSIFICATION_TYPE = U
NORAD_CAT_ID   = 22566
ELEMENT_SET_NO = 999
REV_AT_EPOCH   = 69977
BSTAR          = -.25541E-4
MEAN_MOTION_DOT = -.97E-6
MEAN_MOTION_DDOT = 0

CCSDS_OMM_VERS = 2.0
CREATION_DATE  = 
ORIGINATOR     = 

OBJECT_NAME    = COSMOS 2242
OBJECT_ID      = 1993-024A
CENTER_NAME    = EARTH
REF_FRAME      = TEME
TIME_SYSTEM    = UTC
MEAN_ELEMENT_THEORY = SGP/SGP4

EPOCH          = 2026-02-20T17:15:54.285120
MEAN_MOTION    = 14.96474644
ECCENTRICITY   = .0016629
INCLINATION    = 82.5171
RA_OF_ASC_NODE = 282.9504
ARG_OF_PERICENTER = 7.8071
MEAN_ANOMALY   = 352.3407

EPHEMERIS_TYPE = 0
CLASSIFICATION_TYPE = U
NORAD_CAT_ID   = 22626
ELEMENT_SET_NO = 999
REV_AT_EPOCH   = 77785
BSTAR          = .14255E-3
MEAN_MOTION_DOT = .1648E-4
MEAN_MOTION_DDOT = 0

CCSDS_OMM_VERS = 2.0
CREATION_DATE  = 
ORIGINATOR     = 

OBJECT_NAME    = SL-16 R/B
OBJECT_ID      = 1993-059B
CENTER_NAME    = EARTH
REF_FRAME      = TEME
TIME_SYSTEM    = UTC
MEAN_ELEMENT_THEORY = SGP/SGP4

EPOCH          = 2026-02-20T09:30:34.519968
MEAN_MOTION    = 14.17227405
ECCENTRICITY   = .0019204
INCLINATION    = 70.9895
RA_OF_ASC_NODE = 47.5944
ARG_OF_PERICENTER = 240.3858
MEAN_ANOMALY   = 119.5353

EPHEMERIS_TYPE = 0
CLASSIFICATION_TYPE = U
NORAD_CAT_ID   = 22803
ELEMENT_SET_NO = 999
REV_AT_EPOCH   = 67708
BSTAR          = .13864E-4
MEAN_MOTION_DOT = -.2E-6
MEAN_MOTION_DDOT = 0

CCSDS_OMM_VERS = 2.0
CREATION_DATE  = 
ORIGINATOR     = 

OBJECT_NAME    = ARIANE 40 R/B
OBJECT_ID      = 1993-061H
CENTER_NAME    = EARTH
REF_FRAME      = TEME
TIME_SYSTEM    = UTC
MEAN_ELEMENT_THEORY = SGP/SGP4

EPOCH          = 2026-02-20T17:30:47.110752
MEAN_MOTION    = 14.32851143
ECCENTRICITY   = .0010055
INCLINATION    = 98.4955
RA_OF_ASC_NODE = 120.9490
ARG_OF_PERICENTER = 339.9197
MEAN_ANOMALY   = 20.1590

EPHEMERIS_TYPE = 0
CLASSIFICATION_TYPE = U
NORAD_CAT_ID   = 22830
ELEMENT_SET_NO = 999
REV_AT_EPOCH   = 69167
BSTAR          = .7628E-4
MEAN_MOTION_DOT = .165E-5
MEAN_MOTION_DDOT = 0

CCSDS_OMM_VERS = 2.0
CREATION_DATE  = 
ORIGINATOR     = 

OBJECT_NAME    = COSMOS 2278
OBJECT_ID      = 1994-023A
CENTER_NAME    = EARTH
REF_FRAME      = TEME
TIME_SYSTEM    = UTC
MEAN_ELEMENT_THEORY = SGP/SGP4

EPOCH          = 2026-02-20T16:40:22.656288
MEAN_MOTION    = 14.14366391
ECCENTRICITY   = .0007151
INCLINATION    = 71.0514
RA_OF_ASC_NODE = 210.6521
ARG_OF_PERICENTER = 47.1979
MEAN_ANOMALY   = 312.9743

EPHEMERIS_TYPE = 0
CLASSIFICATION_TYPE = U
NORAD_CAT_ID   = 23087
ELEMENT_SET_NO = 999
REV_AT_EPOCH   = 64240
BSTAR          = .16722E-3
MEAN_MOTION_DOT = .273E-5
MEAN_MOTION_DDOT = 0

CCSDS_OMM_VERS = 2.0
CREATION_DATE  = 
ORIGINATOR     = 

OBJECT_NAME    = SL-16 R/B
OBJECT_ID      = 1994-023B
CENTER_NAME    = EARTH
REF_FRAME      = TEME
TIME_SYSTEM    = UTC
MEAN_ELEMENT_THEORY = SGP/SGP4

EPOCH          = 2026-02-20T12:52:59.336832
MEAN_MOTION    = 14.15010206
ECCENTRICITY   = .0004918
INCLINATION    = 70.9992
RA_OF_ASC_NODE = 106.9126
ARG_OF_PERICENTER = 301.4174
MEAN_ANOMALY   = 58.6467

EPHEMERIS_TYPE = 0
CLASSIFICATION_TYPE = U
NORAD_CAT_ID   = 23088
ELEMENT_SET_NO = 999
REV_AT_EPOCH   = 64366
BSTAR          = .18009E-3
MEAN_MOTION_DOT = .301E-5
MEAN_MOTION_DDOT = 0

